[{"OBJECT_NAME":"STARLINK-3797","OBJECT_ID":"2022-045G","EPOCH":"2026-03-09T15:37:44.174208","MEAN_MOTION":15.088433,"ECCENTRICITY":0.00011521,"INCLINATION":53.217,"RA_OF_ASC_NODE":209.296,"ARG_OF_PERICENTER":89.7817,"MEAN_ANOMALY":270.3307,"EPHEMERIS_TYPE":0,"CLASSIFICATION_TYPE":"U","NORAD_CAT_ID":52337,"ELEMENT_SET_NO":999,"REV_AT_EPOCH":21563,"BSTAR":-3.7939671e-5,"MEAN_MOTION_DOT":-8.92e-6,"MEAN_MOTION_DDOT":0},{"OBJECT_NAME":"JILIN-01 KUANFU 02B 2","OBJECT_ID":"2024-169B","EPOCH":"2026-03-09T21:55:18.103008","MEAN_MOTION":15.09238424,"ECCENTRICITY":0.0011661,"INCLINATION":97.5565,"RA_OF_ASC_NODE":159.2927,"ARG_OF_PERICENTER":15.7533,"MEAN_ANOMALY":344.4056,"EPHEMERIS_TYPE":0,"CLASSIFICATION_TYPE":"U","NORAD_CAT_ID":61190,"ELEMENT_SET_NO":999,"REV_AT_EPOCH":8085,"BSTAR":0.0003793675,"MEAN_MOTION_DOT":5.983e-5,"MEAN_MOTION_DDOT":0}]
